[{"OBJECT_NAME":"HONGHU 2","OBJECT_ID":"2023-193C","EPOCH":"2026-03-09T23:21:07.139520","MEAN_MOTION":15.21543878,"ECCENTRICITY":0.00399876,"INCLINATION":97.2779,"RA_OF_ASC_NODE":62.3901,"ARG_OF_PERICENTER":264.1736,"MEAN_ANOMALY":95.4941,"EPHEMERIS_TYPE":0,"CLASSIFICATION_TYPE":"U","NORAD_CAT_ID":58555,"ELEMENT_SET_NO":999,"REV_AT_EPOCH":8691,"BSTAR":0.0061775359,"MEAN_MOTION_DOT":0.00144707,"MEAN_MOTION_DDOT":0},{"OBJECT_NAME":"STARLINK-35762","OBJECT_ID":"2025-303K","EPOCH":"2026-03-09T23:08:54.457152","MEAN_MOTION":15.27601021,"ECCENTRICITY":6.381e-5,"INCLINATION":42.9981,"RA_OF_ASC_NODE":309.4666,"ARG_OF_PERICENTER":243.7066,"MEAN_ANOMALY":116.372,"EPHEMERIS_TYPE":0,"CLASSIFICATION_TYPE":"U","NORAD_CAT_ID":67172,"ELEMENT_SET_NO":999,"REV_AT_EPOCH":1277,"BSTAR":0.0012773401,"MEAN_MOTION_DOT":0.00035077,"MEAN_MOTION_DDOT":0}]
